{
  "norad_id": 67814,
  "name": "STARLINK-36767",
  "history": [
    {
      "epoch": "2026-05-03T12:42:59.695776Z",
      "apogee_km": 466.5144552156589,
      "perigee_km": 464.53882639583026,
      "latitude_deg": 2.9835914293093937e-05,
      "longitude_deg": -100.27126387745149,
      "height_km": 468.83662971546556,
      "semi_major_axis_km": 6843.663640805744,
      "eccentricity": 0.00014434,
      "inclination_deg": 97.2847,
      "raan_deg": 311.9097,
      "arg_perigee_deg": 101.6913,
      "mean_anomaly_deg": 258.4492,
      "mean_motion_rev_day": 15.33450557
    },
    {
      "epoch": "2026-05-04T12:12:30.765888Z",
      "apogee_km": 467.21811160339985,
      "perigee_km": 463.7627641100262,
      "latitude_deg": -4.7197602174024067e-05,
      "longitude_deg": -92.65389679344318,
      "height_km": 468.14000607687757,
      "semi_major_axis_km": 6843.627437856712,
      "eccentricity": 0.00025245,
      "inclination_deg": 97.2827,
      "raan_deg": 312.8713,
      "arg_perigee_deg": 74.6133,
      "mean_anomaly_deg": 285.5388,
      "mean_motion_rev_day": 15.33462725
    },
    {
      "epoch": "2026-05-05T11:42:01.513728Z",
      "apogee_km": 466.3468462353603,
      "perigee_km": 464.62499070907415,
      "latitude_deg": -3.97339036181464e-05,
      "longitude_deg": -85.02849437632842,
      "height_km": 468.14561367103215,
      "semi_major_axis_km": 6843.622918472217,
      "eccentricity": 0.0001258,
      "inclination_deg": 97.2846,
      "raan_deg": 313.8396,
      "arg_perigee_deg": 58.4421,
      "mean_anomaly_deg": 301.6944,
      "mean_motion_rev_day": 15.33464244
    },
    {
      "epoch": "2026-05-06T11:11:32.727264Z",
      "apogee_km": 466.7928051013714,
      "perigee_km": 464.2647549622279,
      "latitude_deg": -6.522978615960692e-05,
      "longitude_deg": -77.41023360308446,
      "height_km": 468.5391019169248,
      "semi_major_axis_km": 6843.6657800318,
      "eccentricity": 0.0001847,
      "inclination_deg": 97.284,
      "raan_deg": 314.8027,
      "arg_perigee_deg": 85.52,
      "mean_anomaly_deg": 274.6253,
      "mean_motion_rev_day": 15.33449838
    },
    {
      "epoch": "2026-05-07T18:30:53.963424Z",
      "apogee_km": 466.590418180549,
      "perigee_km": 464.494883471466,
      "latitude_deg": -3.324266220430004e-06,
      "longitude_deg": 172.75139776562804,
      "height_km": 468.62255924857345,
      "semi_major_axis_km": 6843.679650826008,
      "eccentricity": 0.0001531,
      "inclination_deg": 97.285,
      "raan_deg": 316.0892,
      "arg_perigee_deg": 88.3783,
      "mean_anomaly_deg": 271.7635,
      "mean_motion_rev_day": 15.33445176
    },
    {
      "epoch": "2026-05-08T11:44:32.351712Z",
      "apogee_km": 466.3446030690611,
      "perigee_km": 464.644644973655,
      "latitude_deg": 1.1961194258630914e-05,
      "longitude_deg": -85.65875885297118,
      "height_km": 468.5705072018355,
      "semi_major_axis_km": 6843.631624021358,
      "eccentricity": 0.0001242,
      "inclination_deg": 97.2846,
      "raan_deg": 316.7965,
      "arg_perigee_deg": 87.6946,
      "mean_anomaly_deg": 272.4439,
      "mean_motion_rev_day": 15.33461318
    },
    {
      "epoch": "2026-05-09T19:03:53.884224Z",
      "apogee_km": 466.55601846826994,
      "perigee_km": 464.53439474443803,
      "latitude_deg": 7.79916560914802e-06,
      "longitude_deg": 164.5019444322452,
      "height_km": 468.65813255551046,
      "semi_major_axis_km": 6843.682206606353,
      "eccentricity": 0.0001477,
      "inclination_deg": 97.2855,
      "raan_deg": 318.0833,
      "arg_perigee_deg": 90.1862,
      "mean_anomaly_deg": 269.955,
      "mean_motion_rev_day": 15.33444317
    },
    {
      "epoch": "2026-05-10T18:33:24.709824Z",
      "apogee_km": 466.45712707328676,
      "perigee_km": 464.6271272746808,
      "latitude_deg": -4.5352309762526246e-05,
      "longitude_deg": 172.1229321159524,
      "height_km": 468.7780677116364,
      "semi_major_axis_km": 6843.679127173984,
      "eccentricity": 0.0001337,
      "inclination_deg": 97.2856,
      "raan_deg": 319.0475,
      "arg_perigee_deg": 97.9157,
      "mean_anomaly_deg": 262.2237,
      "mean_motion_rev_day": 15.33445352
    }
  ]
}